{"type": "FeatureCollection", "features": [{"type": "Feature", "properties": {"norad_id": 50032, "name": "COSMOS 1408 DEB", "group": "cosmos-1408-debris", "lat": 32.79761105692027, "lon": -119.81955920032895, "alt_km": 427.17908629798785, "timestamp": "2025-12-06T09:34:17.184253+00:00", "meta": {"OBJECT_NAME": "COSMOS 1408 DEB", "OBJECT_ID": "1982-092RU", "EPOCH": "2025-12-05T17:23:56.046336", "MEAN_MOTION": 15.45586231, "ECCENTRICITY": 0.00147905, "INCLINATION": 82.5652, "RA_OF_ASC_NODE": 65.698, "ARG_OF_PERICENTER": 236.094, "MEAN_ANOMALY": 123.8903, "EPHEMERIS_TYPE": 0, "CLASSIFICATION_TYPE": "U", "NORAD_CAT_ID": 50032, "ELEMENT_SET_NO": 999, "REV_AT_EPOCH": 22495, "BSTAR": 0.00018626345, "MEAN_MOTION_DOT": 9.032e-05, "MEAN_MOTION_DDOT": 0}, "tle": {"line1": "1 50032U 82092RU  25339.72495424  .00009032  00000+0  18626-3 0  9999", "line2": "2 50032  82.5652  65.6980 0014790 236.0940 123.8903 15.45586231224957"}}, "geometry": {"type": "Point", "coordinates": [-119.81955920032895, 32.79761105692027]}}, {"type": "Feature", "properties": {"norad_id": 50058, "name": "COSMOS 1408 DEB", "group": "cosmos-1408-debris", "lat": -64.4403674214858, "lon": 60.23646516043453, "alt_km": 395.58843055245507, "timestamp": "2025-12-06T09:34:17.184275+00:00", "meta": {"OBJECT_NAME": "COSMOS 1408 DEB", "OBJECT_ID": "1982-092SW", "EPOCH": "2025-12-05T18:29:29.821920", "MEAN_MOTION": 15.6349035, "ECCENTRICITY": 0.00162618, "INCLINATION": 82.6138, "RA_OF_ASC_NODE": 76.6321, "ARG_OF_PERICENTER": 123.2043, "MEAN_ANOMALY": 237.0777, "EPHEMERIS_TYPE": 0, "CLASSIFICATION_TYPE": "U", "NORAD_CAT_ID": 50058, "ELEMENT_SET_NO": 999, "REV_AT_EPOCH": 22695, "BSTAR": 0.00049425942, "MEAN_MOTION_DOT": 0.00046166, "MEAN_MOTION_DDOT": 0}, "tle": {"line1": "1 50058U 82092SW  25339.77048405  .00046166  00000+0  49426-3 0  9996", "line2": "2 50058  82.6138  76.6321 0016261 123.2043 237.0777 15.63490350226957"}}, "geometry": {"type": "Point", "coordinates": [60.23646516043453, -64.4403674214858]}}, {"type": "Feature", "properties": {"norad_id": 50404, "name": "COSMOS 1408 DEB", "group": "cosmos-1408-debris", "lat": 60.77840259935039, "lon": 27.342258532614096, "alt_km": 547.0734925966426, "timestamp": "2025-12-06T09:34:17.184288+00:00", "meta": {"OBJECT_NAME": "COSMOS 1408 DEB", "OBJECT_ID": "1982-092ADS", "EPOCH": "2025-12-05T17:09:27.041184", "MEAN_MOTION": 15.12363152, "ECCENTRICITY": 0.01748864, "INCLINATION": 82.2048, "RA_OF_ASC_NODE": 222.217, "ARG_OF_PERICENTER": 223.1904, "MEAN_ANOMALY": 135.5503, "EPHEMERIS_TYPE": 0, "CLASSIFICATION_TYPE": "U", "NORAD_CAT_ID": 50404, "ELEMENT_SET_NO": 999, "REV_AT_EPOCH": 21087, "BSTAR": 0.0042947787, "MEAN_MOTION_DOT": 0.00109697, "MEAN_MOTION_DDOT": 0}, "tle": {"line1": "1 50404U 82092ADS 25339.71489631  .00109697  00000+0  42948-2 0  9995", "line2": "2 50404  82.2048 222.2170 0174886 223.1904 135.5503 15.12363152210879"}}, "geometry": {"type": "Point", "coordinates": [27.342258532614096, 60.77840259935039]}}, {"type": "Feature", "properties": {"norad_id": 50621, "name": "COSMOS 1408 DEB", "group": "cosmos-1408-debris", "lat": 59.69052311371772, "lon": -112.11679181389525, "alt_km": 382.1721560822043, "timestamp": "2025-12-06T09:34:17.184299+00:00", "meta": {"OBJECT_NAME": "COSMOS 1408 DEB", "OBJECT_ID": "1982-092ALR", "EPOCH": "2025-12-05T06:49:21.818784", "MEAN_MOTION": 15.56082039, "ECCENTRICITY": 0.00287898, "INCLINATION": 82.5718, "RA_OF_ASC_NODE": 81.9388, "ARG_OF_PERICENTER": 179.9157, "MEAN_ANOMALY": 180.2108, "EPHEMERIS_TYPE": 0, "CLASSIFICATION_TYPE": "U", "NORAD_CAT_ID": 50621, "ELEMENT_SET_NO": 999, "REV_AT_EPOCH": 22134, "BSTAR": 0.00061371624, "MEAN_MOTION_DOT": 0.000438, "MEAN_MOTION_DDOT": 0}, "tle": {"line1": "1 50621U 82092ALR 25339.28428031  .00043800  00000+0  61372-3 0  9991", "line2": "2 50621  82.5718  81.9388 0028789 179.9157 180.2108 15.56082039221348"}}, "geometry": {"type": "Point", "coordinates": [-112.11679181389525, 59.69052311371772]}}]}